{"type": "FeatureCollection", "features": [ {"type": "Feature", "properties": {"norad_id": 66915, "name": "HULIANWANG DIGUI-105", "group": "last-30-days", "lat": -37.25082992263027, "lon": -29.470389547305107, "alt_km": 881.6619136793988, "timestamp": "2025-12-14T07:33:18.189463+00:00", "meta": {"OBJECT_NAME": "HULIANWANG DIGUI-105", "OBJECT_ID": "2025-285A", "EPOCH": "2025-12-13T16:47:02.372064", "MEAN_MOTION": 14.03715414, "ECCENTRICITY": 0.00079374, "INCLINATION": 50.0041, "RA_OF_ASC_NODE": 113.3646, "ARG_OF_PERICENTER": 285.9184, "MEAN_ANOMALY": 74.0846, "EPHEMERIS_TYPE": 0, "CLASSIFICATION_TYPE": "U", "NORAD_CAT_ID": 66915, "ELEMENT_SET_NO": 999, "REV_AT_EPOCH": 104, "BSTAR": 4.8476516e-05, "MEAN_MOTION_DOT": -7.5e-07, "MEAN_MOTION_DDOT": 0}, "tle": {"line1": "1 66915U 25285A   25347.69933301 -.00000075  00000+0  48477-4 0  9990", "line2": "2 66915  50.0041 113.3646 0007937 285.9184  74.0846 14.03715414  1040"}}, "geometry": {"type": "Point", "coordinates": [-29.470389547305107, -37.25082992263027]}}, {"type": "Feature", "properties": {"norad_id": 66916, "name": "HULIANWANG DIGUI-106", "group": "last-30-days", "lat": -44.24465458026868, "lon": -14.321877572692491, "alt_km": 877.0890197782801, "timestamp": "2025-12-14T07:33:18.189473+00:00", "meta": {"OBJECT_NAME": "HULIANWANG DIGUI-106", "OBJECT_ID": "2025-285B", "EPOCH": "2025-12-13T11:36:38.486592", "MEAN_MOTION": 14.04849132, "ECCENTRICITY": 0.00068552, "INCLINATION": 50.0055, "RA_OF_ASC_NODE": 114.2227, "ARG_OF_PERICENTER": 274.5312, "MEAN_ANOMALY": 85.4809, "EPHEMERIS_TYPE": 0, "CLASSIFICATION_TYPE": "U", "NORAD_CAT_ID": 66916, "ELEMENT_SET_NO": 999, "REV_AT_EPOCH": 101, "BSTAR": 0.00017759821, "MEAN_MOTION_DOT": 1.35e-06, "MEAN_MOTION_DDOT": 0}, "tle": {"line1": "1 66916U 25285B   25347.48377878  .00000135  00000+0  17760-3 0  9995", "line2": "2 66916  50.0055 114.2227 0006855 274.5312  85.4809 14.04849132  1014"}}, "geometry": {"type": "Point", "coordinates": [-14.321877572692491, -44.24465458026868]}}, {"type": "Feature", "properties": {"norad_id": 66917, "name": "HULIANWANG DIGUI-107", "group": "last-30-days", "lat": -46.00224268383677, "lon": -8.78108892770183, "alt_km": 874.7107748408898, "timestamp": "2025-12-14T07:33:18.189483+00:00", "meta": {"OBJECT_NAME": "HULIANWANG DIGUI-107", "OBJECT_ID": "2025-285C", "EPOCH": "2025-12-13T16:43:10.693920", "MEAN_MOTION": 14.05580654, "ECCENTRICITY": 0.00075459, "INCLINATION": 50.0017, "RA_OF_ASC_NODE": 113.3472, "ARG_OF_PERICENTER": 288.3327, "MEAN_ANOMALY": 71.6758, "EPHEMERIS_TYPE": 0, "CLASSIFICATION_TYPE": "U", "NORAD_CAT_ID": 66917, "ELEMENT_SET_NO": 999, "REV_AT_EPOCH": 104, "BSTAR": 1.126469e-05, "MEAN_MOTION_DOT": -1.34e-06, "MEAN_MOTION_DDOT": 0}, "tle": {"line1": "1 66917U 25285C   25347.69665155 -.00000134  00000+0  11265-4 0  9992", "line2": "2 66917  50.0017 113.3472 0007545 288.3327  71.6758 14.05580654  1046"}}, "geometry": {"type": "Point", "coordinates": [-8.78108892770183, -46.00224268383677]}}, {"type": "Feature", "properties": {"norad_id": 66918, "name": "HULIANWANG DIGUI-108", "group": "last-30-days", "lat": -47.242374198349964, "lon": -3.960683303516806, "alt_km": 874.50532140424, "timestamp": "2025-12-14T07:33:18.189506+00:00", "meta": {"OBJECT_NAME": "HULIANWANG DIGUI-108", "OBJECT_ID": "2025-285D", "EPOCH": "2025-12-13T16:42:15.452352", "MEAN_MOTION": 14.05705711, "ECCENTRICITY": 0.00064835, "INCLINATION": 50.0038, "RA_OF_ASC_NODE": 113.3463, "ARG_OF_PERICENTER": 283.5013, "MEAN_ANOMALY": 76.5169, "EPHEMERIS_TYPE": 0, "CLASSIFICATION_TYPE": "U", "NORAD_CAT_ID": 66918, "ELEMENT_SET_NO": 999, "REV_AT_EPOCH": 104, "BSTAR": 0.00015686326, "MEAN_MOTION_DOT": 1.05e-06, "MEAN_MOTION_DDOT": 0}, "tle": {"line1": "1 66918U 25285D   25347.69601218  .00000105  00000+0  15686-3 0  9990", "line2": "2 66918  50.0038 113.3463 0006483 283.5013  76.5169 14.05705711  1042"}}, "geometry": {"type": "Point", "coordinates": [-3.960683303516806, -47.242374198349964]}}, {"type": "Feature", "properties": {"norad_id": 66919, "name": "HULIANWANG DIGUI-109", "group": "last-30-days", "lat": -47.36797566352275, "lon": -3.416484897646432, "alt_km": 874.2893676140884, "timestamp": "2025-12-14T07:33:18.189517+00:00", "meta": {"OBJECT_NAME": "HULIANWANG DIGUI-109", "OBJECT_ID": "2025-285E", "EPOCH": "2025-12-13T16:42:08.694144", "MEAN_MOTION": 14.05716799, "ECCENTRICITY": 0.00078636, "INCLINATION": 50.0064, "RA_OF_ASC_NODE": 113.3495, "ARG_OF_PERICENTER": 294.8472, "MEAN_ANOMALY": 65.1615, "EPHEMERIS_TYPE": 0, "CLASSIFICATION_TYPE": "U", "NORAD_CAT_ID": 66919, "ELEMENT_SET_NO": 999, "REV_AT_EPOCH": 104, "BSTAR": -4.80549e-07, "MEAN_MOTION_DOT": -1.53e-06, "MEAN_MOTION_DDOT": 0}, "tle": {"line1": "1 66919U 25285E   25347.69593396 -.00000153  00000+0 -48055-6 0  9992", "line2": "2 66919  50.0064 113.3495 0007863 294.8472  65.1615 14.05716799  1042"}}, "geometry": {"type": "Point", "coordinates": [-3.416484897646432, -47.36797566352275]}}, {"type": "Feature", "properties": {"norad_id": 66920, "name": "HULIANWANG DIGUI-110", "group": "last-30-days", "lat": -48.441172905765285, "lon": 2.0334318254087638, "alt_km": 874.6072482591062, "timestamp": "2025-12-14T07:33:18.189529+00:00", "meta": {"OBJECT_NAME": "HULIANWANG DIGUI-110", "OBJECT_ID": "2025-285F", "EPOCH": "2025-12-13T16:41:09.451392", "MEAN_MOTION": 14.05851648, "ECCENTRICITY": 0.00058452, "INCLINATION": 50.0097, "RA_OF_ASC_NODE": 113.3499, "ARG_OF_PERICENTER": 291.7796, "MEAN_ANOMALY": 68.2487, "EPHEMERIS_TYPE": 0, "CLASSIFICATION_TYPE": "U", "NORAD_CAT_ID": 66920, "ELEMENT_SET_NO": 999, "REV_AT_EPOCH": 104, "BSTAR": 0.00016655375, "MEAN_MOTION_DOT": 1.22e-06, "MEAN_MOTION_DDOT": 0}, "tle": {"line1": "1 66920U 25285F   25347.69524828  .00000122  00000+0  16655-3 0  9990", "line2": "2 66920  50.0097 113.3499 0005845 291.7796  68.2487 14.05851648  1041"}}, "geometry": {"type": "Point", "coordinates": [2.0334318254087638, -48.441172905765285]}}, {"type": "Feature", "properties": {"norad_id": 66921, "name": "HULIANWANG DIGUI-111", "group": "last-30-days", "lat": -48.669772805200374, "lon": 3.4361239995009956, "alt_km": 874.1332540096746, "timestamp": "2025-12-14T07:33:18.189540+00:00", "meta": {"OBJECT_NAME": "HULIANWANG DIGUI-111", "OBJECT_ID": "2025-285G", "EPOCH": "2025-12-13T16:40:54.021216", "MEAN_MOTION": 14.05885308, "ECCENTRICITY": 0.00069889, "INCLINATION": 50.0111, "RA_OF_ASC_NODE": 113.3511, "ARG_OF_PERICENTER": 298.1893, "MEAN_ANOMALY": 61.8307, "EPHEMERIS_TYPE": 0, "CLASSIFICATION_TYPE": "U", "NORAD_CAT_ID": 66921, "ELEMENT_SET_NO": 999, "REV_AT_EPOCH": 104, "BSTAR": 0.00016384887, "MEAN_MOTION_DOT": 1.17e-06, "MEAN_MOTION_DDOT": 0}, "tle": {"line1": "1 66921U 25285G   25347.69506969  .00000117  00000+0  16385-3 0  9991", "line2": "2 66921  50.0111 113.3511 0006988 298.1893  61.8307 14.05885308  1042"}}, "geometry": {"type": "Point", "coordinates": [3.4361239995009956, -48.669772805200374]}}, {"type": "Feature", "properties": {"norad_id": 66922, "name": "HULIANWANG DIGUI-112", "group": "last-30-days", "lat": -49.31359475855116, "lon": 8.31714945896012, "alt_km": 873.9708006154169, "timestamp": "2025-12-14T07:33:18.189550+00:00", "meta": {"OBJECT_NAME": "HULIANWANG DIGUI-112", "OBJECT_ID": "2025-285H", "EPOCH": "2025-12-12T21:54:11.608704", "MEAN_MOTION": 14.06000264, "ECCENTRICITY": 0.00069381, "INCLINATION": 50.0083, "RA_OF_ASC_NODE": 116.539, "ARG_OF_PERICENTER": 301.8744, "MEAN_ANOMALY": 58.1486, "EPHEMERIS_TYPE": 0, "CLASSIFICATION_TYPE": "U", "NORAD_CAT_ID": 66922, "ELEMENT_SET_NO": 999, "REV_AT_EPOCH": 93, "BSTAR": 2.241994e-06, "MEAN_MOTION_DOT": -1.49e-06, "MEAN_MOTION_DDOT": 0}, "tle": {"line1": "1 66922U 25285H   25346.91263436 -.00000149  00000+0  22420-5 0  9990", "line2": "2 66922  50.0083 116.5390 0006938 301.8744  58.1486 14.06000264   938"}}, "geometry": {"type": "Point", "coordinates": [8.31714945896012, -49.31359475855116]}}, {"type": "Feature", "properties": {"norad_id": 66923, "name": "HULIANWANG DIGUI-113", "group": "last-30-days", "lat": -49.56411502790279, "lon": 10.874594959108954, "alt_km": 874.2650662568985, "timestamp": "2025-12-14T07:33:18.189562+00:00", "meta": {"OBJECT_NAME": "HULIANWANG DIGUI-113", "OBJECT_ID": "2025-285J", "EPOCH": "2025-12-13T16:39:36.426240", "MEAN_MOTION": 14.0605686, "ECCENTRICITY": 0.00054104, "INCLINATION": 50.0083, "RA_OF_ASC_NODE": 113.3429, "ARG_OF_PERICENTER": 299.4289, "MEAN_ANOMALY": 60.6076, "EPHEMERIS_TYPE": 0, "CLASSIFICATION_TYPE": "U", "NORAD_CAT_ID": 66923, "ELEMENT_SET_NO": 999, "REV_AT_EPOCH": 104, "BSTAR": 0.00016719502, "MEAN_MOTION_DOT": 1.24e-06, "MEAN_MOTION_DDOT": 0}, "tle": {"line1": "1 66923U 25285J   25347.69417160  .00000124  00000+0  16720-3 0  9998", "line2": "2 66923  50.0083 113.3429 0005410 299.4289  60.6076 14.06056860  1046"}}, "geometry": {"type": "Point", "coordinates": [10.874594959108954, -49.56411502790279]}}, {"type": "Feature", "properties": {"norad_id": 66924, "name": "CZ-8A R/B", "group": "last-30-days", "lat": -43.348391110314466, "lon": -18.141728477020607, "alt_km": 850.1829666131171, "timestamp": "2025-12-14T07:33:18.189575+00:00", "meta": {"OBJECT_NAME": "CZ-8A R/B", "OBJECT_ID": "2025-285K", "EPOCH": "2025-12-13T15:20:32.763840", "MEAN_MOTION": 14.30502298, "ECCENTRICITY": 0.01193271, "INCLINATION": 50.0066, "RA_OF_ASC_NODE": 112.3253, "ARG_OF_PERICENTER": 109.9084, "MEAN_ANOMALY": 251.4734, "EPHEMERIS_TYPE": 0, "CLASSIFICATION_TYPE": "U", "NORAD_CAT_ID": 66924, "ELEMENT_SET_NO": 999, "REV_AT_EPOCH": 105, "BSTAR": 8.2632462e-05, "MEAN_MOTION_DOT": 6.7e-07, "MEAN_MOTION_DDOT": 0}, "tle": {"line1": "1 66924U 25285K   25347.63926810  .00000067  00000+0  82632-4 0  9992", "line2": "2 66924  50.0066 112.3253 0119327 109.9084 251.4734 14.30502298  1053"}}, "geometry": {"type": "Point", "coordinates": [-18.141728477020607, -43.348391110314466]}}]}